IRIDIUM 126             
1 42809U 17039G   25316.09878364  .00000386  00000+0  13090-3 0  9997
2 42809  86.3952  84.3952 0001961  87.4400 272.7021 14.34218820438839
IRIDIUM 124             
1 42810U 17039H   25316.25485552  .00000964  00000+0  28064-3 0  9999
2 42810  86.4525  21.0490 0001978  94.5542 265.5885 14.43284082443823
IRIDIUM 128             
1 42811U 17039J   25315.88021684 -.00000111  00000+0 -46842-4 0  9991
2 42811  86.3945 116.0212 0001595 100.2098 259.9278 14.34218405438836
IRIDIUM 121             
1 42812U 17039K   25316.32711685  .00000279  00000+0  92626-4 0  9993
2 42812  86.3948  84.3257 0002056  96.8708 263.2722 14.34218876438741
IRIDIUM 133             
1 42955U 17061A   25316.67938253 -.00000014  00000+0 -12103-4 0  9997
2 42955  86.3947 115.7994 0001876  92.3114 267.8297 14.34217374423749
IRIDIUM 100             
1 42956U 17061B   25316.74280749 -.00000008  00000+0 -10070-4 0  9990
2 42956  86.3946 115.6967 0001789  88.4095 271.7306 14.34217404423755
IRIDIUM 122             
1 42957U 17061C   25316.71109515  .00000000  00000+0 -69270-5 0  9997
2 42957  86.3943 115.7093 0001855  88.8683 271.2725 14.34217550423757
IRIDIUM 129             
1 42958U 17061D   25315.96901228 -.00000002  00000+0 -76268-5 0  9993
2 42958  86.3944 116.0843 0002325  87.1230 273.0232 14.34217476423669
